STARLINK-2249
1 28592C 21041AR  21325.14824898 -.00000124  00000-0 -83222-5 0  3257
2 28592  53.0559 347.5704 0001645  56.1887 336.9750 15.06393886    11
